[
  {
    "OBJECT_NAME": "STARLINK-35586",
    "OBJECT_ID": "25240P",
    "EPOCH": "2025-11-11T06:00:02.000160",
    "MEAN_MOTION": 15.59505931,
    "ECCENTRICITY": 0.0001225,
    "INCLINATION": 53.1592,
    "RA_OF_ASC_NODE": 255.447,
    "ARG_OF_PERICENTER": 100.7627,
    "MEAN_ANOMALY": 115.8921,
    "EPHEMERIS_TYPE": 0,
    "CLASSIFICATION_TYPE": "U",
    "NORAD_CAT_ID": 66159,
    "ELEMENT_SET_NO": 999,
    "REV_AT_EPOCH": 384,
    "BSTAR": 0.0,
    "MEAN_MOTION_DOT": -0.01920571,
    "MEAN_MOTION_DDOT": 0.0,
    "TLE_LINE1": "1 66159U 25240P   25315.25002315 -.01920571  00000+0 -26932-1 0  9993",
    "TLE_LINE2": "2 66159  53.1592 255.4470 0001225 100.7627 115.8921 15.59505931  3849",
    "COMMENT": "Grouped by shell and plane from TLE"
  },
  {
    "OBJECT_NAME": "STARLINK-35636",
    "OBJECT_ID": "25240Q",
    "EPOCH": "2025-11-11T06:00:02.000160",
    "MEAN_MOTION": 15.59505748,
    "ECCENTRICITY": 0.0001232,
    "INCLINATION": 53.1591,
    "RA_OF_ASC_NODE": 255.4385,
    "ARG_OF_PERICENTER": 98.8747,
    "MEAN_ANOMALY": 121.6138,
    "EPHEMERIS_TYPE": 0,
    "CLASSIFICATION_TYPE": "U",
    "NORAD_CAT_ID": 66160,
    "ELEMENT_SET_NO": 999,
    "REV_AT_EPOCH": 384,
    "BSTAR": 0.0,
    "MEAN_MOTION_DOT": -0.01919836,
    "MEAN_MOTION_DDOT": 0.0,
    "TLE_LINE1": "1 66160U 25240Q   25315.25002315 -.01919836  00000+0 -26920-1 0  9994",
    "TLE_LINE2": "2 66160  53.1591 255.4385 0001232  98.8747 121.6138 15.59505748  3844",
    "COMMENT": "Grouped by shell and plane from TLE"
  },
  {
    "OBJECT_NAME": "STARLINK-35635",
    "OBJECT_ID": "25240R",
    "EPOCH": "2025-11-11T06:00:02.000160",
    "MEAN_MOTION": 15.59496834,
    "ECCENTRICITY": 0.0001437,
    "INCLINATION": 53.1592,
    "RA_OF_ASC_NODE": 255.4424,
    "ARG_OF_PERICENTER": 100.1098,
    "MEAN_ANOMALY": 118.4615,
    "EPHEMERIS_TYPE": 0,
    "CLASSIFICATION_TYPE": "U",
    "NORAD_CAT_ID": 66161,
    "ELEMENT_SET_NO": 999,
    "REV_AT_EPOCH": 384,
    "BSTAR": 0.0,
    "MEAN_MOTION_DOT": -0.01904329,
    "MEAN_MOTION_DDOT": 0.0,
    "TLE_LINE1": "1 66161U 25240R   25315.25002315 -.01904329  00000+0 -26681-1 0  9990",
    "TLE_LINE2": "2 66161  53.1592 255.4424 0001437 100.1098 118.4615 15.59496834  3842",
    "COMMENT": "Grouped by shell and plane from TLE"
  },
  {
    "OBJECT_NAME": "STARLINK-35633",
    "OBJECT_ID": "25240S",
    "EPOCH": "2025-11-11T06:00:02.000160",
    "MEAN_MOTION": 15.69113443,
    "ECCENTRICITY": 0.000112,
    "INCLINATION": 53.159,
    "RA_OF_ASC_NODE": 255.3604,
    "ARG_OF_PERICENTER": 91.6646,
    "MEAN_ANOMALY": 167.5215,
    "EPHEMERIS_TYPE": 0,
    "CLASSIFICATION_TYPE": "U",
    "NORAD_CAT_ID": 66162,
    "ELEMENT_SET_NO": 999,
    "REV_AT_EPOCH": 384,
    "BSTAR": 0.0,
    "MEAN_MOTION_DOT": -0.00790456,
    "MEAN_MOTION_DDOT": 0.0,
    "TLE_LINE1": "1 66162U 25240S   25315.25002315 -.00790456  00000+0 -73467-2 0  9999",
    "TLE_LINE2": "2 66162  53.1590 255.3604 0001120  91.6646 167.5215 15.69113443  3846",
    "COMMENT": "Grouped by shell and plane from TLE"
  },
  {
    "OBJECT_NAME": "STARLINK-35607",
    "OBJECT_ID": "25240T",
    "EPOCH": "2025-11-11T06:00:02.000160",
    "MEAN_MOTION": 15.69168505,
    "ECCENTRICITY": 0.0001235,
    "INCLINATION": 53.159,
    "RA_OF_ASC_NODE": 255.3568,
    "ARG_OF_PERICENTER": 107.5516,
    "MEAN_ANOMALY": 153.5359,
    "EPHEMERIS_TYPE": 0,
    "CLASSIFICATION_TYPE": "U",
    "NORAD_CAT_ID": 66163,
    "ELEMENT_SET_NO": 999,
    "REV_AT_EPOCH": 384,
    "BSTAR": 0.0,
    "MEAN_MOTION_DOT": -0.00877564,
    "MEAN_MOTION_DDOT": 0.0,
    "TLE_LINE1": "1 66163U 25240T   25315.25002315 -.00877564  00000+0 -82255-2 0  9991",
    "TLE_LINE2": "2 66163  53.1590 255.3568 0001235 107.5516 153.5359 15.69168505  3849",
    "COMMENT": "Grouped by shell and plane from TLE"
  },
  {
    "OBJECT_NAME": "STARLINK-35614",
    "OBJECT_ID": "25240U",
    "EPOCH": "2025-11-11T06:00:02.000160",
    "MEAN_MOTION": 15.69079324,
    "ECCENTRICITY": 9.19e-05,
    "INCLINATION": 53.1592,
    "RA_OF_ASC_NODE": 255.3486,
    "ARG_OF_PERICENTER": 94.3501,
    "MEAN_ANOMALY": 170.5786,
    "EPHEMERIS_TYPE": 0,
    "CLASSIFICATION_TYPE": "U",
    "NORAD_CAT_ID": 66164,
    "ELEMENT_SET_NO": 999,
    "REV_AT_EPOCH": 384,
    "BSTAR": 0.0,
    "MEAN_MOTION_DOT": -0.00732572,
    "MEAN_MOTION_DDOT": 0.0,
    "TLE_LINE1": "1 66164U 25240U   25315.25002315 -.00732572  00000+0 -67706-2 0  9995",
    "TLE_LINE2": "2 66164  53.1592 255.3486 0000919  94.3501 170.5786 15.69079324  3849",
    "COMMENT": "Grouped by shell and plane from TLE"
  },
  {
    "OBJECT_NAME": "STARLINK-35575",
    "OBJECT_ID": "25240V",
    "EPOCH": "2025-11-11T06:00:02.000160",
    "MEAN_MOTION": 15.69094405,
    "ECCENTRICITY": 0.0001099,
    "INCLINATION": 53.1591,
    "RA_OF_ASC_NODE": 255.353,
    "ARG_OF_PERICENTER": 110.4964,
    "MEAN_ANOMALY": 152.5352,
    "EPHEMERIS_TYPE": 0,
    "CLASSIFICATION_TYPE": "U",
    "NORAD_CAT_ID": 66165,
    "ELEMENT_SET_NO": 999,
    "REV_AT_EPOCH": 384,
    "BSTAR": 0.0,
    "MEAN_MOTION_DOT": -0.00775796,
    "MEAN_MOTION_DDOT": 0.0,
    "TLE_LINE1": "1 66165U 25240V   25315.25002315 -.00775796  00000+0 -72032-2 0  9999",
    "TLE_LINE2": "2 66165  53.1591 255.3530 0001099 110.4964 152.5352 15.69094405  3848",
    "COMMENT": "Grouped by shell and plane from TLE"
  },
  {
    "OBJECT_NAME": "STARLINK-35624",
    "OBJECT_ID": "25240W",
    "EPOCH": "2025-11-11T06:00:02.000160",
    "MEAN_MOTION": 15.69125245,
    "ECCENTRICITY": 0.0001195,
    "INCLINATION": 53.1591,
    "RA_OF_ASC_NODE": 255.3407,
    "ARG_OF_PERICENTER": 89.599,
    "MEAN_ANOMALY": 179.1779,
    "EPHEMERIS_TYPE": 0,
    "CLASSIFICATION_TYPE": "U",
    "NORAD_CAT_ID": 66166,
    "ELEMENT_SET_NO": 999,
    "REV_AT_EPOCH": 384,
    "BSTAR": 0.0,
    "MEAN_MOTION_DOT": -0.00819482,
    "MEAN_MOTION_DDOT": 0.0,
    "TLE_LINE1": "1 66166U 25240W   25315.25002315 -.00819482  00000+0 -76398-2 0  9990",
    "TLE_LINE2": "2 66166  53.1591 255.3407 0001195  89.5990 179.1779 15.69125245  3849",
    "COMMENT": "Grouped by shell and plane from TLE"
  },
  {
    "OBJECT_NAME": "STARLINK-35641",
    "OBJECT_ID": "25240X",
    "EPOCH": "2025-11-11T06:00:02.000160",
    "MEAN_MOTION": 15.69111979,
    "ECCENTRICITY": 0.0001075,
    "INCLINATION": 53.1591,
    "RA_OF_ASC_NODE": 255.3443,
    "ARG_OF_PERICENTER": 92.6694,
    "MEAN_ANOMALY": 174.191,
    "EPHEMERIS_TYPE": 0,
    "CLASSIFICATION_TYPE": "U",
    "NORAD_CAT_ID": 66167,
    "ELEMENT_SET_NO": 999,
    "REV_AT_EPOCH": 384,
    "BSTAR": 0.0,
    "MEAN_MOTION_DOT": -0.00796073,
    "MEAN_MOTION_DDOT": 0.0,
    "TLE_LINE1": "1 66167U 25240X   25315.25002315 -.00796073  00000+0 -74046-2 0  9999",
    "TLE_LINE2": "2 66167  53.1591 255.3443 0001075  92.6694 174.1910 15.69111979  3844",
    "COMMENT": "Grouped by shell and plane from TLE"
  },
  {
    "OBJECT_NAME": "STARLINK-35578",
    "OBJECT_ID": "25240Y",
    "EPOCH": "2025-11-11T06:00:02.000160",
    "MEAN_MOTION": 15.69097832,
    "ECCENTRICITY": 0.0001059,
    "INCLINATION": 53.1591,
    "RA_OF_ASC_NODE": 255.3285,
    "ARG_OF_PERICENTER": 91.9018,
    "MEAN_ANOMALY": 182.633,
    "EPHEMERIS_TYPE": 0,
    "CLASSIFICATION_TYPE": "U",
    "NORAD_CAT_ID": 66168,
    "ELEMENT_SET_NO": 999,
    "REV_AT_EPOCH": 384,
    "BSTAR": 0.0,
    "MEAN_MOTION_DOT": -0.00780065,
    "MEAN_MOTION_DDOT": 0.0,
    "TLE_LINE1": "1 66168U 25240Y   25315.25002315 -.00780065  00000+0 -72457-2 0  9998",
    "TLE_LINE2": "2 66168  53.1591 255.3285 0001059  91.9018 182.6330 15.69097832  3844",
    "COMMENT": "Grouped by shell and plane from TLE"
  },
  {
    "OBJECT_NAME": "STARLINK-35638",
    "OBJECT_ID": "25240Z",
    "EPOCH": "2025-11-11T06:00:02.000160",
    "MEAN_MOTION": 15.69108107,
    "ECCENTRICITY": 0.0001063,
    "INCLINATION": 53.159,
    "RA_OF_ASC_NODE": 255.3368,
    "ARG_OF_PERICENTER": 105.4235,
    "MEAN_ANOMALY": 165.2746,
    "EPHEMERIS_TYPE": 0,
    "CLASSIFICATION_TYPE": "U",
    "NORAD_CAT_ID": 66169,
    "ELEMENT_SET_NO": 999,
    "REV_AT_EPOCH": 384,
    "BSTAR": 0.0,
    "MEAN_MOTION_DOT": -0.00798249,
    "MEAN_MOTION_DDOT": 0.0,
    "TLE_LINE1": "1 66169U 25240Z   25315.25002315 -.00798249  00000+0 -74280-2 0  9998",
    "TLE_LINE2": "2 66169  53.1590 255.3368 0001063 105.4235 165.2746 15.69108107  3849",
    "COMMENT": "Grouped by shell and plane from TLE"
  },
  {
    "OBJECT_NAME": "STARLINK-35585",
    "OBJECT_ID": "25240AA",
    "EPOCH": "2025-11-11T06:00:02.000160",
    "MEAN_MOTION": 15.69103538,
    "ECCENTRICITY": 0.0001066,
    "INCLINATION": 53.1589,
    "RA_OF_ASC_NODE": 255.3257,
    "ARG_OF_PERICENTER": 101.0526,
    "MEAN_ANOMALY": 175.3989,
    "EPHEMERIS_TYPE": 0,
    "CLASSIFICATION_TYPE": "U",
    "NORAD_CAT_ID": 66170,
    "ELEMENT_SET_NO": 999,
    "REV_AT_EPOCH": 384,
    "BSTAR": 0.0,
    "MEAN_MOTION_DOT": -0.00793015,
    "MEAN_MOTION_DDOT": 0.0,
    "TLE_LINE1": "1 66170U 25240AA  25315.25002315 -.00793015  00000+0 -73760-2 0  9998",
    "TLE_LINE2": "2 66170  53.1589 255.3257 0001066 101.0526 175.3989 15.69103538  3848",
    "COMMENT": "Grouped by shell and plane from TLE"
  },
  {
    "OBJECT_NAME": "STARLINK-35606",
    "OBJECT_ID": "25240AB",
    "EPOCH": "2025-11-11T06:00:02.000160",
    "MEAN_MOTION": 15.6911159,
    "ECCENTRICITY": 9.81e-05,
    "INCLINATION": 53.1592,
    "RA_OF_ASC_NODE": 255.3204,
    "ARG_OF_PERICENTER": 89.8774,
    "MEAN_ANOMALY": 188.4817,
    "EPHEMERIS_TYPE": 0,
    "CLASSIFICATION_TYPE": "U",
    "NORAD_CAT_ID": 66171,
    "ELEMENT_SET_NO": 999,
    "REV_AT_EPOCH": 384,
    "BSTAR": 0.0,
    "MEAN_MOTION_DOT": -0.00793394,
    "MEAN_MOTION_DDOT": 0.0,
    "TLE_LINE1": "1 66171U 25240AB  25315.25002315 -.00793394  00000+0 -73776-2 0  9996",
    "TLE_LINE2": "2 66171  53.1592 255.3204 0000981  89.8774 188.4817 15.69111590  3840",
    "COMMENT": "Grouped by shell and plane from TLE"
  }
]